#aV2020  7  5  0  0  0.00000000     288 DD+AD WGS84 FIT  NGA
## 2113      0.00000000   300.00000000 59035 0.0000000000000
+   31     1  2  3  4  5  6  7  8  9 10 11 12 13 14 15 16 17
+         18 19 20 21 22 24 25 26 27 28 29 30 31 32  0  0  0
+          0  0  0  0  0  0  0  0  0  0  0  0  0  0  0  0  0
+          0  0  0  0  0  0  0  0  0  0  0  0  0  0  0  0  0
+          0  0  0  0  0  0  0  0  0  0  0  0  0  0  0  0  0
++         2  2  2  2  2  2  2  2  2  2  2  2  2  2  2  2  2
++         2  2  2  2  2  2  2  2  2  2  2  2  2  2  0  0  0
++         0  0  0  0  0  0  0  0  0  0  0  0  0  0  0  0  0
++         0  0  0  0  0  0  0  0  0  0  0  0  0  0  0  0  0
++         0  0  0  0  0  0  0  0  0  0  0  0  0  0  0  0  0
%c cc cc ccc ccc cccc cccc cccc cccc ccccc ccccc ccccc ccccc
%c cc cc ccc ccc cccc cccc cccc cccc ccccc ccccc ccccc ccccc
%f  0.0000000  0.000000000  0.00000000000  0.000000000000000
%f  0.0000000  0.000000000  0.00000000000  0.000000000000000
%i    0    0    0    0      0      0      0      0         0
%i    0    0    0    0      0      0      0      0         0
/*      NGA, ST. LOUIS,MO.                                  
/*   EPHEMERIS COMPUTED FROM 2 DAYS OF DATA                 
/*   EPOCHA v5 SMOOTHER                                     
/*   G1762 IERS2010 SATAF SATAPC                            
*  2020  7  5 16  5  0.00000000
P  1  15776.480093   2673.012360  21033.702564     21.678264                    
V  1   8218.945895  25844.624168  -9022.003235      0.053056                    
P  2 -13950.923792 -21563.262944  -6223.855838   -482.694366                    
V  2   -838.214692  -9130.778503  30362.008893     -0.057698                    
P  3  20370.849394  -7575.596002  15129.299306   -230.467639                    
V  3 -11163.110229  15942.460621  23011.269536     -0.117558                    
P  4  25075.417863   -652.249912  -8770.660913   -111.033077                    
V  4  10304.020084   4981.206175  29014.283171     -0.046895                    
P  5 -10784.081714 -11153.343057 -21690.179155    -16.030548                    
V  5  17384.521281 -20978.646974   2352.924459     -0.007788                    
P  6  -5853.498943 -25536.892762   4268.745885   -298.876564                    
V  6   3827.216334   4336.631400  31600.195076     -0.053714                    
P  7   8651.684406 -16131.933611 -18749.739169   -320.319129                    
V  7   9567.665878  22810.576327 -15444.598045     -0.087717                    
P  8  25799.900493   6353.178437  -2632.551579    -39.934671                    
V  8  -3676.889524   1706.868397 -31542.158557     -0.013639                    
P  9  17664.297473  -9519.895131 -17458.321231   -248.423996                    
V  9  21448.959254   5588.747943  18689.728311     -0.065954                    
P 10  -9040.874145  22276.089770  11107.947519   -391.089524                    
V 10 -11005.345057   9063.196667 -27584.654453     -0.108184                    
P 11  21848.008918   8573.003889  11631.694621   -229.565330                    
V 11   8596.665387  13783.467306 -25578.772175      0.106444                    
P 12 -20661.334465   6351.948026  15095.632956     97.594720                    
V 12  12550.320701 -15180.924646  23352.698263     -0.048687                    
P 13 -21155.295779 -13471.408210  -9010.488148     24.138600                    
V 13  11388.627173   1336.020814 -29020.749552      0.032682                    
P 14   8793.707236  16462.224661  19319.943378     -0.883071                    
V 14 -23184.538463  -5188.565683  15071.503964      0.028071                    
P 15 -26385.419257  -3992.401910  -2401.580728   -219.589751                    
V 15   2932.677049  -3250.030177 -30573.521334      0.025822                    
P 16  11684.646245   9432.992042 -22144.294803   -178.950242                    
V 16 -19811.966911  19096.661971  -1909.928245     -0.047504                    
P 17    880.437208 -15068.497663  22280.324358    291.338339                    
V 17  26422.484147   6474.854235   3356.594576      0.057761                    
P 18  -8572.427025  16457.806839 -19004.283525    238.593119                    
V 18  -8631.604921 -22547.154639 -15670.067677      0.098199                    
P 19  -7703.065652 -15934.017727  19516.867036   -136.049761                    
V 19  24591.723995   6324.480568  14605.048915      0.050838                    
P 20 -15144.793434  21639.784528  -1159.053600    527.363601                    
V 20  -2445.803835  -3263.222342 -31269.935284     -0.000721                    
P 21   4068.302140  24779.164923  -8372.400336     20.043646                    
V 21  -7049.728203  -9594.265264 -28931.156734      0.045875                    
P 22  18129.768279   -250.196663  19573.722088   -774.005774                    
V 22 -13121.857440  20815.684413  12699.579281      0.024163                    
P 24 -17362.079332  -4166.076358  19570.288212    -15.248376                    
V 24  -8568.926192 -23804.114673 -12173.764684     -0.004837                    
P 25 -19997.969405  15678.157604   7019.501552     20.047462                    
V 25   3973.418735  -8843.363003  30314.002932      0.040582                    
P 26   1368.790972  19224.169696 -18212.436512    237.920409                    
V 26 -15988.101584  16894.525479  16884.339568      0.068889                    
P 27  20056.278392  12475.910126 -12622.530710   -338.195147                    
V 27 -15662.764125  -1356.468098 -26208.164459     -0.096949                    
P 28   9461.653218 -21444.786312  13212.445729    702.427526                    
V 28  12452.840068  -9770.828340 -25783.763276     -0.035407                    
P 29 -21334.498516   4754.048906 -15156.499311   -143.473904                    
V 29 -18097.440813  -6288.204250  23539.988734     -0.086217                    
P 30   1381.874642 -23800.220747 -11428.804443   -255.884768                    
V 30   7385.169948  13111.360419 -26517.496305     -0.077777                    
P 31   6365.061421  25419.884447   2311.775097    -53.623866                    
V 31  -4075.310736  -1882.541595  31793.988666     -0.024801                    
P 32    844.024050  15621.920778  21564.026167    311.990541                    
V 32 -26788.262915  -4591.628568   4245.564856      0.064150                    
EOF
